97P/Metcalf-Brewington,e,17.9521,184.0766,230.0060,4.761771,0.0948531,0.46016905,30.6684,01/05.0/2023,2000,g  5.5,6.0
# From MPEC 2021-W31
98P/Takamizawa,e,10.5615,114.6780,157.8005,3.793494,0.1333967,0.56219681,97.4379,01/05.0/2023,2000,g  9.0,8.0
# From MPEC 2022-YB4
99P/Kowal,e,4.3399,28.1018,174.8512,6.102049,0.0653869,0.22881257,17.5326,01/05.0/2023,2000,g  4.5,6.0
# From MPEC 2022-QD9
100P/Hartley,e,25.5668,37.6879,181.9640,3.431308,0.1550652,0.41200004,22.8052,01/05.0/2023,2000,g  9.0,8.0
# From MPEC 2022-K19
101P/Chernykh,e,5.0508,116.2042,277.7694,5.808782,0.0704006,0.59638840,76.5863,01/05.0/2023,2000,g 10.0,4.8
# From MPEC 2022-C56
102P/Shoemaker,e,25.8817,339.3690,20.6426,3.816280,0.1322037,0.45711264,94.1779,01/05.0/2023,2000,g  6.5,8.0
# From MPEC 2018-HA5
103P/Hartley,e,13.6102,219.7507,181.2974,3.474952,0.1521531,0.69374208,317.3169,01/05.0/2023,2000,g  8.5,8.0
# From MPEC 2022-P82
104P/Kowal,e,5.7026,207.2070,227.2511,3.208343,0.1715074,0.66561563,61.4583,01/05.0/2023,2000,g 16.0,4.0
# From MPC109147
105P/Singer Brewster,e,9.1684,192.3954,46.4360,3.469445,0.1525155,0.40884965,245.7554,01/05.0/2023,2000,g 11.5,6.0
# From MPEC 2022-GA9
106P/Schuster,e,19.5378,48.8693,353.7173,3.765224,0.1349018,0.59394475,68.0083,01/05.0/2023,2000,g 14.0,4.8
# From MPEC 2015-M77
107P/Wilson-Harrington,e,2.7993,266.7740,95.4413,2.624427,0.2318207,0.63167362,30.9113,01/05.0/2023,2000,g  9.0,4.0
# From MPEC 2022-P82
108P/Ciffreo,e,11.4368,50.2767,354.4722,3.740650,0.1362334,0.55608457,65.6373,01/05.0/2023,2000,g  8.0,12.0
# From  105, 420
109P/Swift-Tuttle,e,113.7757,139.2027,153.0485,26.19325,0.0073522,0.96259231,80.7266,01/05.0/2023,2000,g  4.0,6.0
# From MPEC 2022-P82
110P/Hartley,e,11.7046,287.5212,167.4595,3.603764,0.1440686,0.31865924,63.9137,01/05.0/2023,2000,g  1.0,12.0
# From MPC 75718
111P/Helin-Roman-Crockett,e,4.2258,89.7522,1.0711,4.150633,0.1165554,0.10679026,66.1780,01/05.0/2023,2000,g  5.0,8.0
# From MPEC 2021-S45
112P/Urata-Niijima,e,24.2123,31.8339,21.4691,3.524518,0.1489548,0.59051534,158.0996,01/05.0/2023,2000,g 14.0,6.0
# From MPEC 2022-YN2
113P/Spitaler,e,5.2897,306.6781,115.5354,3.691640,0.1389553,0.41981685,30.2240,01/05.0/2023,2000,g 13.5,4.0
# From MPEC 2022-YN2
114P/Wiseman-Skiff,e,18.2874,271.0265,172.7439,3.543048,0.1477878,0.55537526,160.5854,01/05.0/2023,2000,g 11.5,6.0
# From MPEC 2021-UA9
115P/Maury,e,11.6772,176.0064,121.0039,4.272124,0.1116191,0.51802942,99.3166,01/05.0/2023,2000,g 10.5,6.0
# From MPEC 2022-QD9
116P/Wild,e,3.6034,20.9800,173.2710,3.489631,0.1511941,0.37043894,26.0269,01/05.0/2023,2000,g  2.5,10.0
# From MPEC 2022-X67
117P/Helin-Roman-Alu,e,8.7038,58.8388,222.9971,4.083336,0.1194487,0.25556842,21.6162,01/05.0/2023,2000,g  2.5,8.0
# From MPEC 2022-YN2
118P/Shoemaker-Levy,e,10.0918,142.0966,314.8390,3.346410,0.1610035,0.45344644,6.7074,01/05.0/2023,2000,g 12.0,4.0
# From MPEC 2022-YN2
119P/Parker-Hartley,e,7.3934,104.5709,322.0765,3.804198,0.1328341,0.38815687,19.3883,01/05.0/2023,2000,g  3.5,8.0
# From MPEC 2022-CN4
120P/Mueller,e,8.4896,358.6726,36.6651,3.965417,0.1248161,0.37487747,75.8220,01/05.0/2023,2000,g 12.0,4.0
# From MPEC 2022-YN2
121P/Shoemaker-Holt,e,20.1651,94.1150,11.6115,4.583725,0.1004330,0.18616126,342.4815,01/05.0/2023,2000,g  6.5,8.0
# From MPC 75718
122P/de Vico,e,85.5605,79.6606,12.9905,17.62398,0.0133213,0.96232582,132.9402,01/05.0/2023,2000,g  7.5,5.2
# From MPEC 2021-F20
123P/West-Hartley,e,15.2859,45.9116,104.0965,3.880082,0.1289564,0.44443390,184.9501,01/05.0/2023,2000,g 12.2,4.0
# From MPEC 2022-YN2
124P/Mrkos,e,31.6508,0.1186,185.2657,3.363564,0.1597734,0.49075584,158.2053,01/05.0/2023,2000,g 13.5,2.8
# From MPEC 2022-YB4
125P/Spacewatch,e,9.9862,153.1501,87.1827,3.127894,0.1781665,0.51209234,283.8612,01/05.0/2023,2000,g 13.0,6.0
# From MPC 66205
126P/IRAS,e,45.8762,357.8718,356.5955,5.633936,0.0737032,0.69638182,346.6365,01/05.0/2023,2000,g  9.0,4.0
# From MPEC 2022-YN2
127P/Holt-Olmstead,e,14.3011,13.6044,6.2706,3.452691,0.1536270,0.35958924,22.6724,01/05.0/2023,2000,g 11.0,6.0
# From MPC 89014
128P/Shoemaker-Holt,e,4.3702,214.3255,210.2714,4.488399,0.1036494,0.32184453,226.4497,01/05.0/2023,2000,g  8.5,4.0
# From MPEC 2022-YN2
129P/Shoemaker-Levy,e,3.4424,184.8614,307.4387,4.288398,0.1109843,0.08488560,3.9961,01/05.0/2023,2000,g 11.0,4.0
# From MPEC 2022-ED3
130P/McNaught-Hughes,e,6.0629,70.1837,246.1009,3.382990,0.1583992,0.46115833,286.2212,01/05.0/2023,2000,g 10.0,6.0
# From MPC102101
131P/Mueller,e,7.3611,214.1472,179.0665,3.678715,0.1396882,0.34469998,201.1682,01/05.0/2023,2000,g 11.0,4.0
# From MPEC 2022-O08
132P/Helin-Roman-Alu,e,5.3827,173.9950,216.3906,3.887839,0.1285706,0.56472597,53.7186,01/05.0/2023,2000,g 11.0,6.0
# From MPC 94676
133P/Elst-Pizarro,e,1.3898,160.0994,131.9026,3.165509,0.1750003,0.15641394,274.0435,01/05.0/2023,2000,g 15.4,2.0
# From MPC 89012
134P/Kowal-Vavrova,e,4.3344,202.0494,18.8415,6.264591,0.0628586,0.58502944,198.6029,01/05.0/2023,2000,g 11.5,4.0
# From MPEC 2022-OB6
135P/Shoemaker-Levy,e,6.0634,213.0268,22.3251,3.799827,0.1330633,0.29465098,36.2794,01/05.0/2023,2000,g  7.0,8.0
# From MPEC 2022-K19
136P/Mueller,e,9.4245,137.4346,225.0925,4.189451,0.1149393,0.29340926,276.2455,01/05.0/2023,2000,g 11.0,4.0
# From MPEC 2022-K19
137P/Shoemaker-Levy,e,4.8578,232.9531,141.1498,4.521380,0.1025174,0.57386370,151.9499,01/05.0/2023,2000,g 11.0,4.0
# From MPEC 2016-U66
138P/Shoemaker-Levy,e,10.0906,309.2862,95.5862,3.620325,0.1430812,0.53133692,192.0139,01/05.0/2023,2000,g 15.0,6.0
# From MPEC 2020-HN5
139P/Vaisala-Oterma,e,2.3367,242.1394,165.7616,4.518690,0.1026089,0.24787870,189.8188,01/05.0/2023,2000,g  9.5,4.0
# From MPEC 2015-E14
140P/Bowell-Skiff,e,3.8457,343.2244,172.7115,6.414848,0.0606631,0.69379958,164.5051,01/05.0/2023,2000,g 11.5,6.0
# From MPEC 2022-K19
141P/Machholz,e,13.9542,241.7956,153.5985,3.057588,0.1843468,0.73604042,138.1622,01/05.0/2023,2000,g 12.0,12.0
# From MPEC 2022-SU8
141P-I/Machholz,e,13.9540,241.8004,153.5728,3.048237,0.1851957,0.73524778,138.8801,01/05.0/2023,2000,g 17.5,4.0
# From MPEC 2021-Y10
142P/Ge-Wang,e,12.2514,175.9320,174.0166,5.000134,0.0881519,0.49710978,53.0911,01/05.0/2023,2000,g  8.5,6.0
# From MPEC 2022-WQ9
143P/Kowal-Mrkos,e,4.7214,244.9408,320.3455,4.272017,0.1116233,0.41343287,190.4540,01/05.0/2023,2000,g 13.5,2.0
# From MPC104795
144P/Kushida,e,3.9301,242.9770,216.3539,3.829080,0.1315414,0.63508496,309.2716,01/05.0/2023,2000,g  8.5,8.0
# From MPC108598
145P/Shoemaker-Levy,e,11.2802,26.7970,10.2679,4.135717,0.1171866,0.54236816,228.4381,01/05.0/2023,2000,g 13.5,4.0
# From MPC100284
146P/Shoemaker-LINEAR,e,23.1189,53.3759,317.0245,4.029321,0.1218586,0.64749426,289.5125,01/05.0/2023,2000,g 15.0,4.0
# From MPC 75720
147P/Kushida-Muramatsu,e,2.3090,91.7528,348.2856,4.028779,0.1218832,0.21610485,319.1925,01/05.0/2023,2000,g 14.0,4.0
# From MPEC 2021-S45
148P/Anderson-LINEAR,e,3.6580,89.2040,8.0412,3.618787,0.1431725,0.54994132,29.3935,01/05.0/2023,2000,g 16.0,2.0
# From MPC 75720
149P/Mueller,e,34.2927,143.9650,30.9724,4.133055,0.1172998,0.32237950,189.0090,01/05.0/2023,2000,g  8.0,8.0
# From MPEC 2022-YN2
150P/LONEOS,e,18.5298,272.1087,245.9486,3.874634,0.1292284,0.54894555,304.1303,01/05.0/2023,2000,g 13.5,4.0
# From MPEC 2022-K19
151P/Helin,e,4.7278,143.1496,216.1132,5.763020,0.0712408,0.57379997,188.0974,01/05.0/2023,2000,g 10.0,6.0
# From MPEC 2022-UY9
152P/Helin-Lawrence,e,9.8795,91.8534,164.0307,4.477443,0.1040301,0.30861441,37.0288,01/05.0/2023,2000,g 11.5,4.0
# From MPC 46101
153P/Ikeya-Zhang,e,28.1397,93.4603,34.7062,50.37384,0.0027567,0.98975992,0.0000,03/02.7582/2002,2000,g  9.0,4.0
# From MPEC 2022-K19
154P/Brewington,e,17.6323,343.0298,47.9105,4.797806,0.0937865,0.67612717,310.9075,01/05.0/2023,2000,g  2.5,12.0
# From MPEC 2022-YN2
155P/Shoemaker,e,6.4015,97.1717,14.5453,6.572873,0.0584886,0.72667154,67.0795,01/05.0/2023,2000,g 10.0,4.8
# From MPEC 2022-GA9
156P/Russell-LINEAR,e,17.2696,35.3431,0.4722,3.462051,0.1530044,0.61514341,119.0133,01/05.0/2023,2000,g 15.5,2.0
# From MPEC 2022-YB4
157P/Tritton,e,12.4204,287.5466,155.0683,3.545688,0.1476228,0.55669019,17.2985,01/05.0/2023,2000,g 10.0,4.0
# From MPEC 2022-VC5
157P-B/Tritton,e,12.4273,287.0889,153.9399,3.100930,0.1804954,0.49968975,21.4778,01/05.0/2023,2000,g 15.7,4.0
# From MPEC 2022-VC5
158P/Kowal-LINEAR,e,7.5089,133.0466,192.0426,5.332601,0.0800379,0.09520207,33.4452,01/05.0/2023,2000,g  9.0,4.0
# From MPEC 2021-N06
159P/LONEOS,e,23.4823,54.9459,4.5742,5.852597,0.0696115,0.38251810,117.4861,01/05.0/2023,2000,g 10.0,4.0
# From MPEC 2022-K19
160P/LINEAR,e,15.6122,333.3609,12.7767,3.776691,0.1342879,0.52611615,151.6556,01/05.0/2023,2000,g 15.5,2.0
# From MPC 75721
161P/Hartley-IRAS,e,95.8019,1.5830,47.0278,7.717327,0.0459731,0.83543429,294.5690,01/05.0/2023,2000,g  8.5,6.0
# From MPEC 2022-M21
162P/SidingSpring,e,27.5644,30.8886,357.1846,3.092056,0.1812729,0.58316274,137.3924,01/05.0/2023,2000,g 12.0,4.0
# From MPEC 2021-S45
163P/NEAT,e,12.7153,102.0681,349.5558,3.764877,0.1349205,0.45254314,168.4620,01/05.0/2023,2000,g 14.5,4.0
# From MPEC 2021-F20
164P/Christensen,e,16.2689,88.2668,325.8683,3.654527,0.1410773,0.54091673,236.7746,01/05.0/2023,2000,g 11.0,4.0
# From MPC 75721
165P/LINEAR,e,15.8946,0.8669,125.7943,17.84081,0.0130792,0.61643642,108.1248,01/05.0/2023,2000,g 11.5,2.0
# From MPC 75722
166P/NEAT,e,15.3839,64.3533,321.6425,13.81533,0.0191939,0.38462347,144.3618,01/05.0/2023,2000,g  5.5,4.0
# From MPC 75722
167P/CINEOS,e,19.1046,295.7305,344.7940,16.24980,0.0150464,0.26994672,119.0918,01/05.0/2023,2000,g  9.5,2.0
# From MPC102101
168P/Hergenrother,e,21.6236,355.4509,15.0286,3.582367,0.1453614,0.62121701,181.3920,01/05.0/2023,2000,g 15.5,4.0
# From MPEC 2022-WQ9
169P/NEAT,e,11.2986,176.1011,218.0515,2.602420,0.2347675,0.76834274,42.0972,01/05.0/2023,2000,g 16.0,2.0
# From MPEC 2022-X67
170P/Christensen,e,10.1213,142.9214,225.4275,4.206790,0.1142294,0.30500054,348.0275,01/05.0/2023,2000,g 12.0,4.0
# From MPC102102
